*******************************************************************************
JPL/HORIZONS                2999 Dante (1981 CY)           2023-Sep-04 11:21:09
Rec #:    2999 (+COV) Soln.date: 2023-Aug-23_04:58:56   # obs: 9380 (1952-2023)
 
IAU76/J2000 helio. ecliptic osc. elements (au, days, deg., period=Julian yrs):
 
  EPOCH=  2457908.5 ! 2017-Jun-04.00 (TDB)         Residual RMS= .24208
   EC= .1051476127699756   QR= 2.032211685368073   TP= 2458300.4025179218
   OM= 74.94319397362734   W=  38.92916905024872   IN= 6.767752259375595
   A= 2.271002138865264    MA= 247.1359025937645   ADIST= 2.509792592362456
   PER= 3.42243            N= .287990233           ANGMOM= .025779593
   DAN= 2.07608            DDN= 2.44597            L= 113.676672
   B= 4.2465842            MOID= 1.05403996        TP= 2018-Jun-30.9025179218
 
Asteroid physical parameters (km, seconds, rotational period in hours):
   GM= n.a.                RAD= 3.4435             ROTPER= 49.714
   H= 13.71                G= .150                 B-V= n.a.
                           ALBEDO= .128            STYP= n.a.

ASTEROID comments: 
1: soln ref.= JPL#47, OCC=0
2: source=ORB
*******************************************************************************


*******************************************************************************
Ephemeris / API_USER Mon Sep  4 11:21:09 2023 Pasadena, USA      / Horizons
*******************************************************************************
Target body name: 2999 Dante (1981 CY)            {source: JPL#47}
Center body name: Solar System Barycenter (0)     {source: DE441}
Center-site name: BODY CENTER
*******************************************************************************
Start time      : A.D. 2023-Aug-12 00:00:00.0000 TDB
Stop  time      : A.D. 2023-Aug-13 00:00:00.0000 TDB
Step-size       : 2880 minutes
*******************************************************************************
Center geodetic : 0.0, 0.0, 0.0                   {E-lon(deg),Lat(deg),Alt(km)}
Center cylindric: 0.0, 0.0, 0.0                   {E-lon(deg),Dxy(km),Dz(km)}
Center radii    : (undefined)
Small perturbers: Yes                             {source: SB441-N16}
Output units    : KM-S
Calendar mode   : Mixed Julian/Gregorian
Output type     : GEOMETRIC cartesian states
Output format   : 2 (position and velocity)
Reference frame : Ecliptic of J2000.0
*******************************************************************************
Initial IAU76/J2000 heliocentric ecliptic osculating elements (au, days, deg.):
  EPOCH=  2457908.5 ! 2017-Jun-04.00 (TDB)         Residual RMS= .24208        
   EC= .1051476127699756   QR= 2.032211685368073   TP= 2458300.4025179218      
   OM= 74.94319397362734   W=  38.92916905024872   IN= 6.767752259375595       
  Equivalent ICRF heliocentric cartesian coordinates (au, au/d):
   X= 2.335128816700639E+00  Y=-2.456219531525610E-01  Z=-4.112271380125754E-01
  VX= 8.036253667364711E-04 VY= 9.839367529605195E-03 VZ= 4.529379496651274E-03
Asteroid physical parameters (km, seconds, rotational period in hours):        
   GM= n.a.                RAD= 3.4435             ROTPER= 49.714              
   H= 13.71                G= .150                 B-V= n.a.                   
                           ALBEDO= .128            STYP= n.a.                  
*******************************************************************************
JDTDB
   X     Y     Z
   VX    VY    VZ
*******************************************************************************
$$SOE
2460168.500000000 = A.D. 2023-Aug-12 00:00:00.0000 TDB 
 X = 1.397933407038491E+08 Y =-3.473272693533610E+08 Z =-2.684570784245141E+07
 VX= 1.638359481890486E+01 VY= 6.687726655470929E+00 VZ=-1.668577039345164E+00
$$EOE
*******************************************************************************
 
TIME

  Barycentric Dynamical Time ("TDB" or T_eph) output was requested. This
continuous coordinate time is equivalent to the relativistic proper time
of a clock at rest in a reference frame co-moving with the solar system
barycenter but outside the system's gravity well. It is the independent
variable in the solar system relativistic equations of motion.

  TDB runs at a uniform rate of one SI second per second and is independent
of irregularities in Earth's rotation.
 
CALENDAR SYSTEM

  Mixed calendar mode was active such that calendar dates after AD 1582-Oct-15
(if any) are in the modern Gregorian system. Dates prior to 1582-Oct-5 (if any)
are in the Julian calendar system, which is automatically extended for dates
prior to its adoption on 45-Jan-1 BC.  The Julian calendar is useful for
matching historical dates. The Gregorian calendar more accurately corresponds
to the Earth's orbital motion and seasons. A "Gregorian-only" calendar mode is
available if such physical events are the primary interest.

REFERENCE FRAME AND COORDINATES

  Ecliptic at the standard reference epoch

    Reference epoch: J2000.0
    X-Y plane: adopted Earth orbital plane at the reference epoch
               Note: IAU76 obliquity of 84381.448 arcseconds wrt ICRF X-Y plane
    X-axis   : ICRF
    Z-axis   : perpendicular to the X-Y plane in the directional (+ or -) sense
               of Earth's north pole at the reference epoch.

  Symbol meaning:

    JDTDB    Julian Day Number, Barycentric Dynamical Time
      X      X-component of position vector (km)
      Y      Y-component of position vector (km)
      Z      Z-component of position vector (km)
      VX     X-component of velocity vector (km/sec)                           
      VY     Y-component of velocity vector (km/sec)                           
      VZ     Z-component of velocity vector (km/sec)                           

ABERRATIONS AND CORRECTIONS

 Geometric state vectors have NO corrections or aberrations applied.

Computations by ...

    Solar System Dynamics Group, Horizons On-Line Ephemeris System
    4800 Oak Grove Drive, Jet Propulsion Laboratory
    Pasadena, CA  91109   USA

    General site: https://ssd.jpl.nasa.gov/
    Mailing list: https://ssd.jpl.nasa.gov/email_list.html
    System news : https://ssd.jpl.nasa.gov/horizons/news.html
    User Guide  : https://ssd.jpl.nasa.gov/horizons/manual.html
    Connect     : browser        https://ssd.jpl.nasa.gov/horizons/app.html#/x
                  API            https://ssd-api.jpl.nasa.gov/doc/horizons.html
                  command-line   telnet ssd.jpl.nasa.gov 6775
                  e-mail/batch   https://ssd.jpl.nasa.gov/ftp/ssd/hrzn_batch.txt
                  scripts        https://ssd.jpl.nasa.gov/ftp/ssd/SCRIPTS
    Author      : Jon.D.Giorgini@jpl.nasa.gov
*******************************************************************************
